DMSP 5D-3 F16 (USA 172) 
1 28054U 03048A   26155.22303601  .00000030  00000+0  39503-4 0  9996
2 28054  98.9894 178.9652 0007068 174.6569 262.8614 14.14481930167654
METEOSAT-9 (MSG-2)      
1 28912U 05049B   26154.86114579  .00000133  00000+0  00000+0 0  9994
2 28912   9.3308  54.2974 0002358  37.5703 156.1962  1.00267174  6869
DMSP 5D-3 F17 (USA 191) 
1 29522U 06050A   26155.15880407  .00000060  00000+0  53369-4 0  9998
2 29522  98.7378 161.9955 0011325  92.6302 267.6168 14.14991107 10581
FENGYUN 3A              
1 32958U 08026A   26154.44398347  .00000099  00000+0  67514-4 0  9997
2 32958  98.6881  95.5346 0008990 160.5127 199.6395 14.19568113933454
GOES 14                 
1 35491U 09033A   26154.94643249 -.00000224  00000+0  00000+0 0  9993
2 35491   1.6559  83.2003 0002154 358.9211 300.3738  1.00115722  6455
DMSP 5D-3 F18 (USA 210) 
1 35951U 09057A   26155.12930516  .00000278  00000+0  16720-3 0  9995
2 35951  98.9033 135.9272 0009952 291.1345  68.8764 14.14889165857743
EWS-G2 (GOES 15)        
1 36411U 10008A   26155.14987456  .00000031  00000+0  00000+0 0  9999
2 36411   1.2421  83.0693 0005513  34.9751 252.0540  1.00275862 59507
COMS 1                  
1 36744U 10032A   26152.73864208 -.00000334  00000+0  00000+0 0  9993
2 36744   4.7700  75.5552 0001064 351.7830 216.9341  1.00271905 50939
FENGYUN 3B              
1 37214U 10059A   26155.22466564 -.00000277  00000+0 -11988-3 0  9993
2 37214  98.9620 201.1833 0021240 221.6544 219.0677 14.14836970805596
SUOMI NPP               
1 37849U 11061A   26155.15963769  .00000105  00000+0  70884-4 0  9991
2 37849  98.7951  96.1250 0002212  34.6599 325.4721 14.19514574756595
METEOSAT-10 (MSG-3)     
1 38552U 12035B   26155.06604177  .00000005  00000+0  00000+0 0  9997
2 38552   4.6405  61.0782 0001856 337.7427 237.6281  1.00275536 50723
METOP-B                 
1 38771U 12049A   26155.16721480  .00000141  00000+0  84316-4 0  9991
2 38771  98.6509 206.9256 0002943  49.0204 311.1227 14.21429136711416
INSAT-3D                
1 39216U 13038B   26154.94906001 -.00000327  00000+0  00000+0 0  9994
2 39216   1.8918  82.7080 0000935 346.3381 294.5293  1.00269597 46946
FENGYUN 3C              
1 39260U 13052A   26155.18122277  .00000104  00000+0  73965-4 0  9998
2 39260  98.4980 129.6539 0015780  62.8683 297.4099 14.15751868656721
METEOR-M 2              
1 40069U 14037A   26155.19381922  .00000267  00000+0  14111-3 0  9993
2 40069  98.5109 131.3930 0007041  75.4948 284.7010 14.21458060617470
HIMAWARI-8              
1 40267U 14060A   26154.95131337 -.00000263  00000+0  00000+0 0  9990
2 40267   0.0154   1.3160 0000981  86.1978 288.0371  1.00272808 42620
FENGYUN 2G              
1 40367U 14090A   26154.80052208 -.00000292  00000+0  00000+0 0  9999
2 40367   5.6052  72.9774 0003441 153.7233  53.2439  1.00279146 41867
METEOSAT-11 (MSG-4)     
1 40732U 15034A   26155.13912786  .00000074  00000+0  00000+0 0  9994
2 40732   3.1697  71.1815 0001632   3.3437 237.5044  1.00276233  7083
ELEKTRO-L 2             
1 41105U 15074A   26155.06310514 -.00000107  00000+0  00000+0 0  9994
2 41105   6.6614  70.6831 0001330 280.5449 269.5208  1.00272364 38378
SENTINEL-3A             
1 41335U 16011A   26155.17240965  .00000140  00000+0  75974-4 0  9998
2 41335  98.6251 222.7424 0001306 105.9361 254.1963 14.26736300536205
INSAT-3DR               
1 41752U 16054A   26155.08072332 -.00000065  00000+0  00000+0 0  9999
2 41752   0.1402  86.9411 0010325 189.2543  79.4009  1.00271328 35685
HIMAWARI-9              
1 41836U 16064A   26154.87997589 -.00000263  00000+0  00000+0 0  9999
2 41836   0.0411 169.8886 0001563 311.0224 228.9789  1.00270670 35077
GOES 16                 
1 41866U 16071A   26155.18794779 -.00000079  00000+0  00000+0 0  9996
2 41866   0.3071  85.6542 0000680 317.8199 172.1703  1.00271220 34979
FENGYUN 4A              
1 41882U 16077A   26154.94793336 -.00000345  00000+0  00000+0 0  9997
2 41882   2.2896  80.4279 0008165 151.6857 125.2600  1.00276726 34795
CYGFM05                 
1 41884U 16078A   26154.96601564  .00024961  00000+0  34577-3 0  9992
2 41884  34.9581 348.0996 0007633  16.1223 343.9743 15.56053261526695
CYGFM04                 
1 41885U 16078B   26154.84918617  .00032093  00000+0  37212-3 0  9994
2 41885  34.9334 317.2233 0006274  59.2059 300.9283 15.60725588526919
CYGFM02                 
1 41886U 16078C   26154.81105752  .00038278  00000+0  39646-3 0  9994
2 41886  34.9417 312.3956 0007242  61.1306 299.0146 15.63583658527070
CYGFM01                 
1 41887U 16078D   26154.96041244  .00025620  00000+0  34629-3 0  9999
2 41887  34.9412 349.3001 0007495   9.9841 350.1031 15.56708194526641
CYGFM08                 
1 41888U 16078E   26154.87820111  .00029991  00000+0  36745-3 0  9994
2 41888  34.9441 329.7687 0008331  42.3043 317.8324 15.59280840526899
CYGFM07                 
1 41890U 16078G   26154.83819993  .00030504  00000+0  37249-3 0  9991
2 41890  34.9457 318.3886 0006662  58.5749 301.5627 15.59381184526913
CYGFM03                 
1 41891U 16078H   26154.87315422  .00030010  00000+0  36657-3 0  9998
2 41891  34.9413 320.0972 0006243  45.5037 314.6198 15.59378968526894
