OBJECT_NAME,OBJECT_ID,EPOCH,MEAN_MOTION,ECCENTRICITY,INCLINATION,RA_OF_ASC_NODE,ARG_OF_PERICENTER,MEAN_ANOMALY,EPHEMERIS_TYPE,CLASSIFICATION_TYPE,NORAD_CAT_ID,ELEMENT_SET_NO,REV_AT_EPOCH,BSTAR,MEAN_MOTION_DOT,MEAN_MOTION_DDOT
DMSP 5D-3 F16 (USA 172),2003-048A,2026-06-04T05:21:10.311264,14.14481930,.0007068,98.9894,178.9652,174.6569,262.8614,0,U,28054,999,16765,.39503E-4,.3E-6,0
METEOSAT-9 (MSG-2),2005-049B,2026-06-03T20:40:02.996256,1.00267174,.0002358,9.3308,54.2974,37.5703,156.1962,0,U,28912,999,686,0,.133E-5,0
DMSP 5D-3 F17 (USA 191),2006-050A,2026-06-04T03:48:40.671648,14.14991107,.0011325,98.7378,161.9955,92.6302,267.6168,0,U,29522,999,1058,.53369E-4,.6E-6,0
FENGYUN 3A,2008-026A,2026-06-03T10:39:20.171808,14.19568113,.00089901,98.6881,95.5346,160.5127,199.6395,0,U,32958,999,93345,.67514327E-4,.99E-6,0
GOES 14,2009-033A,2026-06-03T22:42:51.767136,1.00115722,.0002154,1.6559,83.2003,358.9211,300.3738,0,U,35491,999,645,0,-.224E-5,0
DMSP 5D-3 F18 (USA 210),2009-057A,2026-06-04T03:06:11.965824,14.14889165,.0009952,98.9033,135.9272,291.1345,68.8764,0,U,35951,999,85774,.1672E-3,.278E-5,0
EWS-G2 (GOES 15),2010-008A,2026-06-04T03:35:49.161984,1.00275862,.0005513,1.2421,83.0693,34.9751,252.0540,0,U,36411,999,5950,0,.31E-6,0
COMS 1,2010-032A,2026-06-01T17:43:38.675712,1.00271905,.00010648,4.7700,75.5552,351.7830,216.9341,0,U,36744,999,5093,0,-.334E-5,0
FENGYUN 3B,2010-059A,2026-06-04T05:23:31.111296,14.14836970,.002124,98.9620,201.1833,221.6544,219.0677,0,U,37214,999,80559,-.11988E-3,-.277E-5,0
SUOMI NPP,2011-061A,2026-06-04T03:49:52.696416,14.19514574,.0002212,98.7951,96.1250,34.6599,325.4721,0,U,37849,999,75659,.70884E-4,.105E-5,0
METEOSAT-10 (MSG-3),2012-035B,2026-06-04T01:35:06.008928,1.00275536,.0001856,4.6405,61.0782,337.7427,237.6281,0,U,38552,999,5072,0,.5E-7,0
METOP-B,2012-049A,2026-06-04T04:00:47.358720,14.21429136,.0002943,98.6509,206.9256,49.0204,311.1227,0,U,38771,999,71141,.84316E-4,.141E-5,0
INSAT-3D,2013-038B,2026-06-03T22:46:38.784864,1.00269597,.0000935,1.8918,82.7080,346.3381,294.5293,0,U,39216,999,4694,0,-.327E-5,0
FENGYUN 3C,2013-052A,2026-06-04T04:20:57.647328,14.15751868,.001578,98.4980,129.6539,62.8683,297.4099,0,U,39260,999,65672,.73965E-4,.104E-5,0
METEOR-M 2,2014-037A,2026-06-04T04:39:05.980608,14.21458060,.0007041,98.5109,131.3930,75.4948,284.7010,0,U,40069,999,61747,.14111E-3,.267E-5,0
HIMAWARI-8,2014-060A,2026-06-03T22:49:53.475168,1.00272808,.0000981,0.0154,1.3160,86.1978,288.0371,0,U,40267,999,4262,0,-.263E-5,0
FENGYUN 2G,2014-090A,2026-06-03T19:12:45.107712,1.00279146,.0003441,5.6052,72.9774,153.7233,53.2439,0,U,40367,999,4186,0,-.292E-5,0
METEOSAT-11 (MSG-4),2015-034A,2026-06-04T03:20:20.647104,1.00276233,.0001632,3.1697,71.1815,3.3437,237.5044,0,U,40732,999,708,0,.74E-6,0
ELEKTRO-L 2,2015-074A,2026-06-04T01:30:52.284096,1.00272364,.000133,6.6614,70.6831,280.5449,269.5208,0,U,41105,999,3837,0,-.107E-5,0
SENTINEL-3A,2016-011A,2026-06-04T04:08:16.193760,14.26736300,.0001306,98.6251,222.7424,105.9361,254.1963,0,U,41335,999,53620,.75974E-4,.14E-5,0
INSAT-3DR,2016-054A,2026-06-04T01:56:14.494848,1.00271328,.0010325,0.1402,86.9411,189.2543,79.4009,0,U,41752,999,3568,0,-.65E-6,0
HIMAWARI-9,2016-064A,2026-06-03T21:07:09.916896,1.00270670,.00015639,0.0411,169.8886,311.0224,228.9789,0,U,41836,999,3507,0,-.263E-5,0
GOES 16,2016-071A,2026-06-04T04:30:38.689056,1.00271220,.000068,0.3071,85.6542,317.8199,172.1703,0,U,41866,999,3497,0,-.79E-6,0
FENGYUN 4A,2016-077A,2026-06-03T22:45:01.442304,1.00276726,.0008165,2.2896,80.4279,151.6857,125.2600,0,U,41882,999,3479,0,-.345E-5,0
CYGFM05,2016-078A,2026-06-03T23:11:03.751296,15.56053261,.0007633,34.9581,348.0996,16.1223,343.9743,0,U,41884,999,52669,.34577E-3,.24961E-3,0
CYGFM04,2016-078B,2026-06-03T20:22:49.685088,15.60725588,.0006274,34.9334,317.2233,59.2059,300.9283,0,U,41885,999,52691,.37212E-3,.32093E-3,0
CYGFM02,2016-078C,2026-06-03T19:27:55.369728,15.63583658,.00072427,34.9417,312.3956,61.1306,299.0146,0,U,41886,999,52707,.3964556E-3,.38278E-3,0
CYGFM01,2016-078D,2026-06-03T23:02:59.634816,15.56708194,.0007495,34.9412,349.3001,9.9841,350.1031,0,U,41887,999,52664,.34629E-3,.2562E-3,0
CYGFM08,2016-078E,2026-06-03T21:04:36.575904,15.59280840,.0008331,34.9441,329.7687,42.3043,317.8324,0,U,41888,999,52689,.36745E-3,.29991E-3,0
CYGFM07,2016-078G,2026-06-03T20:07:00.473952,15.59381184,.0006662,34.9457,318.3886,58.5749,301.5627,0,U,41890,999,52691,.3724937E-3,.30504E-3,0
CYGFM03,2016-078H,2026-06-03T20:57:20.524608,15.59378968,.0006243,34.9413,320.0972,45.5037,314.6198,0,U,41891,999,52689,.36657E-3,.3001E-3,0
